locationid,Applicant,FacilityType,cnn,LocationDescription,Address,blocklot,block,lot,permit,Status,FoodItems,FoodItems2,X,Y,Latitude,Longitude,Schedule,dayshours,NOISent,Approved,Received,PriorPermit,ExpirationDate,Location
762182,F & C Catering,Truck,12664000,TOWNSEND ST: 05TH ST to 06TH ST (400 - 499),444 TOWNSEND ST,3785004A,3785,004A,16MFF-0027,APPROVED,Cold Truck: Hot/Cold Sandwiches: Water: Soda: Juice: Snacks: Milk: Candies: Canned Food: Soups: Cup of Noodles: Fruit: Salad,ColdTruck,6012987.023,2110175.723,37.77487132,-122.3985317,http://bsm.sfdpw.org/PermitsTracker/reports/report.aspx?title=schedule&report=rptSchedule&params=permit=16MFF-0027&ExportPDF=1&Filename=16MFF-0027_schedule.pdf,Mo-Fr:10AM-11AM,,3/9/16 0:00,3/9/16,1,3/15/17 0:00,"(37.7748713162388, -122.398531708276)"
765673,Quan Catering,Truck,11741000,SELBY ST: HUDSON AVE to INNES AVE (500 - 599),500 SELBY ST,5264049,5264,49,16MFF-0050,APPROVED,Cold Truck: Soft drinks: cup cakes: potato chips: cookies: gum: sandwiches (hot & cold): peanuts: muffins: coff (hot & cold): water: juice: yoplait: milk: orange juice: sunflower seeds: can foods: burritos: buscuits: chimichangas: rice krispies,ColdTruck,6013218.357,2099109.295,37.74449821,-122.3969554,http://bsm.sfdpw.org/PermitsTracker/reports/report.aspx?title=schedule&report=rptSchedule&params=permit=16MFF-0050&ExportPDF=1&Filename=16MFF-0050_schedule.pdf,Mo-Fr:8AM-8AM/11AM-12PM,,3/14/16 0:00,3/14/16,1,3/15/17 0:00,"(37.7444982132112, -122.396955405842)"
762369,John's Catering #5,Truck,186201,03RD ST: 16TH ST to MARIPOSA ST (1800 - 1998) -- WEST --,1900 03RD ST,3992003,3992,3,16MFF-0031,APPROVED,Cold Truck: Soda:Chips:Candy: Cold/Hot Sandwiches: Donuts.  (Pitco Wholesale),ColdTruck,6015473.195,2106569.082,37.76510646,-122.3896795,http://bsm.sfdpw.org/PermitsTracker/reports/report.aspx?title=schedule&report=rptSchedule&params=permit=16MFF-0031&ExportPDF=1&Filename=16MFF-0031_schedule.pdf,Mo-Fr:9AM-10AM,,3/9/16 0:00,3/9/16,1,3/15/17 0:00,"(37.7651064631908, -122.38967948729)"
765880,Munch A Bunch,Truck,784000,17TH ST: SAN BRUNO AVE to UTAH ST (2200 - 2299),2222 17TH ST,3960001,3960,1,16MFF-0069,APPROVED,Cold Truck: packaged sandwiches: pitas: breakfast: cold and hot drinks: snacks,ColdTruck,6010755.356,2106704.644,37.76521595,-122.406007,http://bsm.sfdpw.org/PermitsTracker/reports/report.aspx?title=schedule&report=rptSchedule&params=permit=16MFF-0069&ExportPDF=1&Filename=16MFF-0069_schedule.pdf,Mo-Fr:5AM-6AM,,3/15/16 0:00,3/15/16,1,3/15/17 0:00,"(37.7652159489938, -122.406006972029)"
765690,Park's Catering,Truck,2477000,CESAR CHAVEZ ST: EVANS AVE to KANSAS ST (2100 - 2550),2323 CESAR CHAVEZ ST,4342001,4342,1,16MFF-0051,APPROVED,Cold Truck: Hamburger: cheeseburgers: hot dogs: hot sandwiches: cold sandwiches: egg muffins: cup of noodles: corn dogs: canned soup: coffee: hot cocoa: hot tea: gatorade: juice: milk: soda: water: fruits: fruit salad: rice pudding: yogurt: candy bars: chips: cookies: donuts: granola bars: muffins,ColdTruck,6012210.337,2100696.938,37.74880138,-122.4005525,http://bsm.sfdpw.org/PermitsTracker/reports/report.aspx?title=schedule&report=rptSchedule&params=permit=16MFF-0051&ExportPDF=1&Filename=16MFF-0051_schedule.pdf,Mo-Fr:6AM-8AM,,3/15/16 0:00,3/14/16,1,3/15/17 0:00,"(37.7488013777145, -122.400552458785)"
760178,Liang Bai Ping,Truck,13780000,YOSEMITE AVE: INGALLS ST to JENNINGS ST (1400 - 1499),1430 YOSEMITE AVE,4831008,4831,8,16MFF-0016,APPROVED,Cold Truck: Pre-packaged sandwiches: snacks: fruit: various beverages,ColdTruck,6015560.891,2092142.182,37.72549805,-122.3883692,http://bsm.sfdpw.org/PermitsTracker/reports/report.aspx?title=schedule&report=rptSchedule&params=permit=16MFF-0016&ExportPDF=1&Filename=16MFF-0016_schedule.pdf,Mo-Fr:12PM-1PM,,3/17/16 0:00,3/3/16,1,3/15/17 0:00,"(37.7254980479505, -122.388369150442)"
761933,"Off the Grid Services, LLC",Truck,307000,05TH ST: BLUXOME ST to TOWNSEND ST (650 - 699),670 05TH ST,3785002,3785,2,16MFF-0024,APPROVED,Everything,ColdTruck,6013152.64,2110433.77,37.77558908,-122.3979769,http://bsm.sfdpw.org/PermitsTracker/reports/report.aspx?title=schedule&report=rptSchedule&params=permit=16MFF-0024&ExportPDF=1&Filename=16MFF-0024_schedule.pdf,Mo/We/Fr:8AM-3PM,,3/17/16 0:00,3/8/16,0,3/15/17 0:00,"(37.7755890799594, -122.39797690638)"
760393,Anas Goodies Catering,Truck,11833000,SHOTWELL ST: 15TH ST to 16TH ST (100 - 199),131 SHOTWELL ST,5501 003,5501,3,16MFF-0017,APPROVED,Cold Truck: Sandwiches: Noodles:  Pre-packaged Snacks: Candy: Desserts Various Beverages,ColdTruck,6007971.764,2100466.349,37.74793094,-122.4151932,http://bsm.sfdpw.org/PermitsTracker/reports/report.aspx?title=schedule&report=rptSchedule&params=permit=16MFF-0017&ExportPDF=1&Filename=16MFF-0017_schedule.pdf,Mo-Fr:11AM-12PM,,3/4/16 0:00,3/4/16,1,3/15/17 0:00,"(37.7479309361129, -122.415193153909)"
763522,Roadside Rotisserie Corporation / Country Grill,Truck,3419000,BUSH ST: 01ST ST \ MARKET ST to BATTERY ST (1 - 99),1 BUSH ST,290011,290,11,16MFF-0036,APPROVED,Rotisserie Chicken: Ribs: Kickass Salad: Potatos w/fat dripping: chicken wrap.,Authentic,6012652.373,2116027.943,37.79092151,-122.4001004,http://bsm.sfdpw.org/PermitsTracker/reports/report.aspx?title=schedule&report=rptSchedule&params=permit=16MFF-0036&ExportPDF=1&Filename=16MFF-0036_schedule.pdf,Mo/We/Fr:9AM-3PM,,3/10/16 0:00,3/10/16,0,3/15/17 0:00,"(37.7909215072692, -122.400100423738)"
763599,D & T Catering,Truck,3184000,BROADWAY: BRODERICK ST to BAKER ST (2800 - 2899),2840 BROADWAY,958004,958,4,16MFF-0037,APPROVED,Cold Truck: Pre-packaged sandwiches: Chicken Bake: Canned Soup: Chili Dog: Corn Dog: Cup of Noodles: Egg Muffins: Hamburgers: Cheeseburgers: Hot Dog: Hot sandwiches: quesadillas: Beverages: Flan: Fruits: Yogurt: Candy: Cookies: Chips: Donuts: Snacks,ColdTruck,6000020.336,2117205.164,37.79344143,-122.4438912,http://bsm.sfdpw.org/PermitsTracker/reports/report.aspx?title=schedule&report=rptSchedule&params=permit=16MFF-0037&ExportPDF=1&Filename=16MFF-0037_schedule.pdf,Mo-Fr:10AM-11AM,,3/10/16 0:00,3/10/16,1,3/15/17 0:00,"(37.7934414335598, -122.443891213784)"
765202,Golden Catering,Truck,2825101,BAY SHORE BLVD: LELAND AVE to VISITACION AVE (2401 - 2499) -- EAST --,2401 BAY SHORE BLVD,5087003A,5087,003A,16MFF-0047,APPROVED,Cold Truck: Pre-packaged Sandwiches: Various Beverages: Salads: Snacks,ColdTruck,6011284.798,2086924.615,37.71093379,-122.4027845,http://bsm.sfdpw.org/PermitsTracker/reports/report.aspx?title=schedule&report=rptSchedule&params=permit=16MFF-0047&ExportPDF=1&Filename=16MFF-0047_schedule.pdf,Mo-Fr:10AM-11AM,,3/11/16 0:00,3/11/16,1,3/15/17 0:00,"(37.710933792981, -122.40278453801)"
765723,Eva's Catering,Truck,305000,05TH ST: WELSH ST to BRANNAN ST (530 - 599),530 05TH ST,3778001B,3778,001B,16MFF-0053,APPROVED,Cold Truck: Burrito: Corn Dog: Salads: Sandwiches: Quesadilla: Tacos: Fried Rice: Cow Mein: Chinese Rice: Noodle Plates: Soup: Bacon: Eggs: Ham: Avacado: Sausages: Beverages,ColdTruck,6012502.558,2110915.797,37.77687639,-122.4002596,http://bsm.sfdpw.org/PermitsTracker/reports/report.aspx?title=schedule&report=rptSchedule&params=permit=16MFF-0053&ExportPDF=1&Filename=16MFF-0053_schedule.pdf,Mo-Fr:4AM-5AM,,3/14/16 0:00,3/14/16,1,3/15/17 0:00,"(37.7768763887765, -122.400259575202)"
759550,Paradise Catering,Truck,4194000,CLEMENTINA ST: 01ST ST to ECKER ST (1 - 37),19 CLEMENTINA ST,3736124,3736,124,16MFF-0012,APPROVED,Cold Truck: Sandwiches: snacks: prepackaged items: beverages:,ColdTruck,6013968.817,2114630.492,37.78715774,-122.3954476,http://bsm.sfdpw.org/PermitsTracker/reports/report.aspx?title=schedule&report=rptSchedule&params=permit=16MFF-0012&ExportPDF=1&Filename=16MFF-0012_schedule.pdf,Mo-Fr:9AM-10AM,,3/2/16 0:00,3/2/16,1,3/15/17 0:00,"(37.787157744174, -122.395447605152)"
765941,San Pancho's Tacos,Truck,3670000,CAPITOL AVE: DE MONTFORT AVE to OCEAN AVE (1200 - 1299),1271 CAPITOL AVE,6935001,6935,1,16MFF-0071,APPROVED,Tacos: Burritos: Quesadillas: Tortas: Nachos: Hot Dogs:Soda: Water: Fruit Drinks,Mexican,5995019.526,2092127.388,37.72429778,-122.4593773,http://bsm.sfdpw.org/PermitsTracker/reports/report.aspx?title=schedule&report=rptSchedule&params=permit=16MFF-0071&ExportPDF=1&Filename=16MFF-0071_schedule.pdf,Su:7AM-7PM,,3/15/16 0:00,3/15/16,1,3/15/17 0:00,"(37.7242977785276, -122.459377309548)"
766573,Rita's Catering,Truck,9100000,MISSION ST: 06TH ST to 07TH ST (1000 - 1099),1028 MISSION ST,3703033,3703,33,16MFF-0073,APPROVED,Filipino Food,Authentic,6009812.085,2112361.07,37.78069438,-122.4096688,http://bsm.sfdpw.org/PermitsTracker/reports/report.aspx?title=schedule&report=rptSchedule&params=permit=16MFF-0073&ExportPDF=1&Filename=16MFF-0073_schedule.pdf,Mo/We/Fr:7AM-3PM,,3/16/16 0:00,3/16/16,0,3/15/17 0:00,"(37.7806943774082, -122.409668813219)"
765170,DO UC US Mobile Catering,Truck,10293000,PARNASSUS AVE: HILLWAY AVE to 03RD AVE (400 - 599),400 PARNASSUS AVE,1756001,1756,1,16MFF-0046,APPROVED,Cold truck: sandwiches: salads: beverages: chips: candy: cookies: coffee: tea: drinks,ColdTruck,5995605.966,2106525.104,37.76386403,-122.4583917,http://bsm.sfdpw.org/PermitsTracker/reports/report.aspx?title=schedule&report=rptSchedule&params=permit=16MFF-0046&ExportPDF=1&Filename=16MFF-0046_schedule.pdf,Mo-Fr:9AM-4PM,,3/11/16 0:00,3/11/16,1,3/15/17 0:00,"(37.7638640323832, -122.458391749844)"
760093,Mini Mobile Food Catering,Truck,8958000,MENDELL ST: GALVEZ AVE to HUDSON AVE (600 - 699),620 MENDELL ST,5254002,5254,2,16MFF-0014,APPROVED,Cold Truck: Corn Dogs: Noodle Soups: Candy: Pre-packaged Snacks: Sandwiches: Chips: Coffee: Tea: Various Beverages,ColdTruck,6016250.092,2097183.501,37.73937867,-122.3863379,http://bsm.sfdpw.org/PermitsTracker/reports/report.aspx?title=schedule&report=rptSchedule&params=permit=16MFF-0014&ExportPDF=1&Filename=16MFF-0014_schedule.pdf,Sa:11AM-2PM,,3/3/16 0:00,3/3/16,1,3/15/17 0:00,"(37.7393786694373, -122.386337945153)"
761930,"Off the Grid Services, LLC",Truck,2953000,BERRY ST: 03RD ST to 04TH ST (100 - 199),185 BERRY ST,3803005,3803,5,16MFF-0023,APPROVED,everything except for hot dogs,ColdTruck,6014943.869,2110666.298,37.77632715,-122.3917968,http://bsm.sfdpw.org/PermitsTracker/reports/report.aspx?title=schedule&report=rptSchedule&params=permit=16MFF-0023&ExportPDF=1&Filename=16MFF-0023_schedule.pdf,Su:10AM-6PM,,3/17/16 0:00,3/8/16,0,3/15/17 0:00,"(37.7763271477899, -122.391796821077)"
700510,Breaking Bread Inc.,Truck,2754000,BATTERY ST: CALIFORNIA ST to HALLECK ST (200 - 230),300 CALIFORNIA ST,238002,238,2,15MFF-0139,APPROVED,prepackaged food,ColdTruck,6012600.766,2116948.597,37.79344653,-122.4003437,http://bsm.sfdpw.org/PermitsTracker/reports/report.aspx?title=schedule&report=rptSchedule&params=permit=15MFF-0139&ExportPDF=1&Filename=15MFF-0139_schedule.pdf,Mo/We/Fr:2PM-6PM,,2/5/16 0:00,8/3/15,0,3/15/17 0:00,"(37.7934465278161, -122.400343675592)"
760541,Linda's Catering,Truck,3285000,BRYANT ST: 04TH ST \ I-80 E OFF RAMP to 05TH ST \ I-80 E ON RAMP (600 - 699),617 BRYANT ST,3777055,3777,55,16MFF-0019,APPROVED,Hot Dogs: Hamburgers: Nachos: Steaks: Pastas: Asian Dishes: Tri-Tip Sandwiches: Sodas & Water,Fusion,6013083.726,2111696.027,37.77905111,-122.3983039,http://bsm.sfdpw.org/PermitsTracker/reports/report.aspx?title=schedule&report=rptSchedule&params=permit=16MFF-0019&ExportPDF=1&Filename=16MFF-0019_schedule.pdf,Mo/Tu/Th/Fr:8AM-9AM/10AM-11AM,,3/7/16 0:00,3/4/16,1,3/15/17 0:00,"(37.7790511115731, -122.398303881334)"
765944,JapaCurry,Truck,7032000,HOWARD ST: FREMONT ST to 01ST ST (400 - 499),400 HOWARD ST,3720008,3720,8,16MFF-0072,APPROVED,Katsu Curry: KUROBUTA Sausage Curry: Vegetable Curry: Veggie Croquette Curry: Chicken NANBAN Bento: Nori Bento: water: soda: green tea,Authentic,6013858.06,2115347.095,37.78911921,-122.395881,http://bsm.sfdpw.org/PermitsTracker/reports/report.aspx?title=schedule&report=rptSchedule&params=permit=16MFF-0072&ExportPDF=1&Filename=16MFF-0072_schedule.pdf,Tu/We/Th:11AM-2PM,,3/15/16 0:00,3/15/16,1,3/15/17 0:00,"(37.7891192076677, -122.395881039335)"
761696,"Off the Grid Services, LLC",Truck,3143000,BROADWAY: DAVIS ST to FRONT ST (50 - 99),90 BROADWAY,140007,140,7,16MFF-0022,APPROVED,everything except for hot dogs,ColdTruck,6012853.387,2119060.762,37.79926011,-122.3996179,http://bsm.sfdpw.org/PermitsTracker/reports/report.aspx?title=schedule&report=rptSchedule&params=permit=16MFF-0022&ExportPDF=1&Filename=16MFF-0022_schedule.pdf,Fr:10AM-3PM,,3/17/16 0:00,3/8/16,0,3/15/17 0:00,"(37.7992601135023, -122.399617948655)"
762243,Senor Sisig,Truck,5170000,ELLIS ST: POWELL ST to CYRIL MAGNIN ST (100 - 148),120 ELLIS ST,326005,326,5,16MFF-0028,APPROVED,Filipino fusion food: taco: burrito: nachos: rice plates,Fusion,6010286.046,2114141.69,37.78561009,-122.4081548,http://bsm.sfdpw.org/PermitsTracker/reports/report.aspx?title=schedule&report=rptSchedule&params=permit=16MFF-0028&ExportPDF=1&Filename=16MFF-0028_schedule.pdf,Sa-Su:11AM-6PM,,3/10/16 0:00,3/9/16,0,3/15/17 0:00,"(37.7856100863691, -122.408154764345)"
765744,Eva's Catering,Truck,7236000,INGALLS ST: CARROLL AVE to DONNER AVE (2600 - 2699),2600 INGALLS ST,4882001,4882,1,16MFF-0055,APPROVED,Corndogs: fried burrito: rice placet: soda: water: sandwiches: soup: noodle plates,ColdTruck,6015050.344,2091107.684,37.72262922,-122.3900618,http://bsm.sfdpw.org/PermitsTracker/reports/report.aspx?title=schedule&report=rptSchedule&params=permit=16MFF-0055&ExportPDF=1&Filename=16MFF-0055_schedule.pdf,Mo/We/Fr:10AM-2PM,,3/14/16 0:00,3/14/16,0,3/15/17 0:00,"(37.7226292175983, -122.390061846327)"
762621,Senor Sisig,Truck,480000,10TH ST: FELL ST \ MARKET ST \ POLK ST to END (1 - 18),8 10TH ST,3507041,3507,41,16MFF-0034,APPROVED,Senor Sisig: Filipino fusion food: tacos: burritos: nachos: rice plates. Various beverages.Chairman Bao: Vegetable and meat sandwiches filled with Asian-flavored meats and vegetables.,Fusion,6007585.376,2110633.378,37.77582552,-122.4172496,http://bsm.sfdpw.org/PermitsTracker/reports/report.aspx?title=schedule&report=rptSchedule&params=permit=16MFF-0034&ExportPDF=1&Filename=16MFF-0034_schedule.pdf,Mo/We/Fr:11AM-2PM,,3/18/16 0:00,3/10/16,0,3/15/17 0:00,"(37.7758255197583, -122.417249626643)"
676797,"Peruchi Food Truck,LLC",Truck,4972000,DRUMM ST: CLAY ST to WASHINGTON ST (200 - 299),253 DRUMM ST,203013,203,13,15MFF-0023,APPROVED,Peruvian Chinese Food. Lomo Saltado: Arroz Con Pollo: Tipa Kay: Yuca Fries,Fusion,6013507.554,2117905.099,37.79612338,-122.3972732,http://bsm.sfdpw.org/PermitsTracker/reports/report.aspx?title=schedule&report=rptSchedule&params=permit=15MFF-0023&ExportPDF=1&Filename=15MFF-0023_schedule.pdf,Mo/We/Fr:9AM-3PM,,3/15/16 0:00,3/2/15,0,3/15/17 0:00,"(37.7961233802521, -122.397273204338)"
761936,"Off the Grid Services, LLC",Truck,3143000,BROADWAY: DAVIS ST to FRONT ST (50 - 99),90 BROADWAY,140007,140,7,16MFF-0025,APPROVED,everything except for hot dogs,ColdTruck,6012853.387,2119060.762,37.79926011,-122.3996179,http://bsm.sfdpw.org/PermitsTracker/reports/report.aspx?title=schedule&report=rptSchedule&params=permit=16MFF-0025&ExportPDF=1&Filename=16MFF-0025_schedule.pdf,Mo/We/Fr:10AM-3PM,,3/17/16 0:00,3/8/16,0,3/15/17 0:00,"(37.7992601135023, -122.399617948655)"
765719,Scotch Bonnet,Truck,3528000,CALIFORNIA ST: SANSOME ST to LEIDESDORFF ST (400 - 448),430 CALIFORNIA ST,239029,239,29,16MFF-0052,APPROVED,Jerk chicken: curry chicken: curry goat: curry dhal: Burritos: Fish: Ox tails: rice: beans: veggies.,Authentic,6012181.836,2116889.979,37.79326221,-122.4017891,http://bsm.sfdpw.org/PermitsTracker/reports/report.aspx?title=schedule&report=rptSchedule&params=permit=16MFF-0052&ExportPDF=1&Filename=16MFF-0052_schedule.pdf,Tu/Th:6AM-8PM,,3/14/16 0:00,3/14/16,0,3/15/17 0:00,"(37.7932622069231, -122.401789091363)"
765855,Curry Up Now,Truck,3422000,,225 BUSH ST,289001,289,1,16MFF-0067,APPROVED,Chicken Tiki Masala Burritos: Paneer Tiki Masala Burritos: Samosas: Mango Lassi,Fusion,6012345.54,2116003.915,37.79083842,-122.4011604,http://bsm.sfdpw.org/PermitsTracker/reports/report.aspx?title=schedule&report=rptSchedule&params=permit=16MFF-0067&ExportPDF=1&Filename=16MFF-0067_schedule.pdf,Mo-Fr:11AM-2PM,,3/16/16 0:00,3/15/16,1,3/15/17 0:00,"(37.7908384194517, -122.401160370299)"
762514,Tacos Rodriguez,Truck,9794000,OAKDALE AVE: INDUSTRIAL ST \ SELBY ST to TOLAND ST (2100 - 2199),2198 OAKDALE AVE,5590A008,5590A,8,16MFF-0032,APPROVED,Tacos: burritos: quesadillas: soda & water,Mexican,6011973.411,2097858.615,37.74099474,-122.4011723,http://bsm.sfdpw.org/PermitsTracker/reports/report.aspx?title=schedule&report=rptSchedule&params=permit=16MFF-0032&ExportPDF=1&Filename=16MFF-0032_schedule.pdf,Mo-Fr:8AM-5PM,,3/9/16 0:00,3/9/16,1,3/15/17 0:00,"(37.7409947350024, -122.401172335386)"
764026,"Expresso Subito, LLC.",Truck,5869000,FRONT ST: CALIFORNIA ST to HALLECK ST (200 - 234),150 CALIFORNIA ST,236019,236,19,16MFF-0038,APPROVED,Expresso drinks: assorted beverages (canned: bottled: home made): scones: croissants: bagels: soup: chili: parfaits: smoothies: frappes: milk shakes.,ColdTruck,6013145.603,2117020.157,37.79367338,-122.3984635,http://bsm.sfdpw.org/PermitsTracker/reports/report.aspx?title=schedule&report=rptSchedule&params=permit=16MFF-0038&ExportPDF=1&Filename=16MFF-0038_schedule.pdf,Mo-Fr:6AM-5PM,,3/14/16 0:00,3/10/16,0,3/15/17 0:00,"(37.7936733815047, -122.398463509486)"
762516,Tacos El Flaco,Truck,194101,03RD ST: 25TH ST to 26TH ST (2901 - 2999) -- EAST --,2901 03RD ST,4296010,4296,10,16MFF-0033,APPROVED,Tacos: Burritos: Tortas: Quesadillas: Chips & Salsa & Various Beverages,Mexican,6016154.266,2101929.534,37.75240499,-122.3870002,http://bsm.sfdpw.org/PermitsTracker/reports/report.aspx?title=schedule&report=rptSchedule&params=permit=16MFF-0033&ExportPDF=1&Filename=16MFF-0033_schedule.pdf,Mo/Tu/We/Th/Fr:7AM-6PM,,3/9/16 0:00,3/9/16,0,3/15/17 0:00,"(37.7524049924783, -122.387000196298)"
775686,Think is Good Inc.,Truck,3528000,CALIFORNIA ST: SANSOME ST to LEIDESDORFF ST (400 - 448),400 CALIFORNIA ST,238003,238,3,16MFF-0086,APPROVED,Sushi Burrito: Chicken Burrito: Tempura Burrito,Fusion,,,0,0,http://bsm.sfdpw.org/PermitsTracker/reports/report.aspx?title=schedule&report=rptSchedule&params=permit=16MFF-0086&ExportPDF=1&Filename=16MFF-0086_schedule.pdf,Tu/Th:10AM-3PM,,3/31/16 0:00,3/29/16,0,3/15/17 0:00,"(0, 0)"
801893,"Santana ESG, Inc.",Truck,6754000,HARRISON ST: 21ST ST to 22ND ST (2500 - 2599),2598 HARRISON ST,3613009,3613,9,16MFF-0117,APPROVED,Tacos: Burritos: Tortas: Quesadillas: Mexican Drinks: Aguas Frescas,Mexican,,,0,0,http://bsm.sfdpw.org/PermitsTracker/reports/report.aspx?title=schedule&report=rptSchedule&params=permit=16MFF-0117&ExportPDF=1&Filename=16MFF-0117_schedule.pdf,Mo-Su:9AM-10PM,,5/20/16 0:00,5/10/16,1,3/15/17 0:00,"(0, 0)"
763509,Roadside Rotisserie Corporation / Country Grill,Truck,5874000,FRONT ST: BROADWAY to VALLEJO ST (800 - 899),90 BROADWAY,140007,140,7,16MFF-0035,APPROVED,Rotisserie Chicken: Ribs: Kickass Salad: Potatos w/fat dripping: chicken wrap.,Authentic,6012853.387,2119060.762,37.79926011,-122.3996179,http://bsm.sfdpw.org/PermitsTracker/reports/report.aspx?title=schedule&report=rptSchedule&params=permit=16MFF-0035&ExportPDF=1&Filename=16MFF-0035_schedule.pdf,Mo/We/Fr:10AM-2PM,,3/10/16 0:00,3/10/16,0,3/15/17 0:00,"(37.7992601135023, -122.399617948655)"
767078,BHUK Burger,Truck,10390000,PHELAN AVE: GENEVA AVE \ OCEAN AVE to JUDSON AVE (1 - 199),11 PHELAN AVE,3180001,3180,1,16MFF-0076,APPROVED,Pakistani Indian food: and salad: cold and hot drinks: Pakistani soft drinks: Sohan halva: Pakistani Indian desserts: and fruit dessert,Authentic,5996539.936,2092561.48,37.72557699,-122.4541528,http://bsm.sfdpw.org/PermitsTracker/reports/report.aspx?title=schedule&report=rptSchedule&params=permit=16MFF-0076&ExportPDF=1&Filename=16MFF-0076_schedule.pdf,Mo/Tu/We/Th/Fr:7AM-8PM,,3/18/16 0:00,3/18/16,0,3/15/17 0:00,"(37.7255769923986, -122.454152837668)"
760599,"Bay Area Mobile Catering, Inc. dba. Taqueria Angelica's",Truck,2471000,CESAR CHAVEZ ST: INDIANA ST to IOWA ST (1300 - 1399),1301 CESAR CHAVEZ ST,4352007,4352,7,16MFF-0020,APPROVED,Tacos: Burritos: Tortas: Quesadillas: Sodas: Chips: Candy,Mexican,6014982.07,2100806.303,37.74925586,-122.3909754,http://bsm.sfdpw.org/PermitsTracker/reports/report.aspx?title=schedule&report=rptSchedule&params=permit=16MFF-0020&ExportPDF=1&Filename=16MFF-0020_schedule.pdf,Mo-Fr:9AM-5PM,,3/21/16 0:00,3/4/16,1,3/15/17 0:00,"(37.7492558595291, -122.390975379577)"
765740,Mike's Catering,Truck,12532003,TERRY A FRANCOIS BLVD: MISSION BAY BLVD to MISSION BAY BLVD (0 - 0),Assessors Block 8722/Lot005,8722005,8722,5,16MFF-0054,APPROVED,Cold Truck: packaged sandwiches: snacks: candy: hot and cold drinks,ColdTruck,6016501.447,2108199.438,37.76964003,-122.3862367,http://bsm.sfdpw.org/PermitsTracker/reports/report.aspx?title=schedule&report=rptSchedule&params=permit=16MFF-0054&ExportPDF=1&Filename=16MFF-0054_schedule.pdf,Mo/Mo/Mo/Mo/Mo:7AM-8AM/9AM-11AM;Su/Su/Su/Su/Su:9AM-2PM;Sa/Sa/Sa/Sa/Sa:9AM-3PM;Mo/Mo/Mo/Mo/Mo:11AM-1,,3/22/16 0:00,3/14/16,1,3/15/17 0:00,"(37.7696400322177, -122.386236654199)"
764604,BH & MT LLC,Truck,1232000,23RD ST: END to ILLINOIS ST (100 - 699),401 23RD ST,4232010,4232,10,16MFF-0041,APPROVED,Cold Truck: Breakfast: Sandwiches: Salads: Pre-Packaged Snacks: Beverages,ColdTruck,6016887.317,2102871.037,37.75503073,-122.3845307,http://bsm.sfdpw.org/PermitsTracker/reports/report.aspx?title=schedule&report=rptSchedule&params=permit=16MFF-0041&ExportPDF=1&Filename=16MFF-0041_schedule.pdf,Mo-Fr:11AM-12PM,,3/28/16 0:00,3/11/16,1,3/15/17 0:00,"(37.7550307267667, -122.384530734223)"
769977,SF Cart Project,Truck,15019101,MISSION BAY BLVD SOUTH: 03RD ST \ MISSION BAY BLVD to 04TH ST \ MISSION BAY BLVD (501 - 599),535 MISSION BAY BLVD SOUTH,8711007,8711,7,16MFF-0079,APPROVED,7 Multiple Trucks on rotation (1 on Mission Bay Blvd South & 6 on 4th St).   Serving everything but hot dogs,ColdTruck,6014983.883,2108042.285,37.76912441,-122.3914749,http://bsm.sfdpw.org/PermitsTracker/reports/report.aspx?title=schedule&report=rptSchedule&params=permit=16MFF-0079&ExportPDF=1&Filename=16MFF-0079_schedule.pdf,Mo-Fr:10AM-3PM,,3/23/16 0:00,3/23/16,0,3/15/17 0:00,"(37.7691244121681, -122.391474911246)"
770569,Kara's Cupcakes,Truck,7832201,KING ST: 02ND ST to 03RD ST (100 - 198) -- NORTH --,118 KING ST,3794010,3794,10,16MFF-0081,APPROVED,Cupcakes,ColdTruck,6015306.857,2111936.992,37.77983633,-122.3906299,http://bsm.sfdpw.org/PermitsTracker/reports/report.aspx?title=schedule&report=rptSchedule&params=permit=16MFF-0081&ExportPDF=1&Filename=16MFF-0081_schedule.pdf,Tu/Th/Sa:3PM-4PM;Mo/Tu/We/Th/Fr:5PM-6PM,,3/24/16 0:00,3/24/16,0,3/15/17 0:00,"(37.7798363328837, -122.390629949741)"
770163,Alfaro's Truck,Truck,13057001,VALENCIA ST: 14TH ST to ROSA PARKS LN (300 - 337),306 VALENCIA ST,3546001,3546,1,16MFF-0080,APPROVED,Burritos: Tacos: Tortas: Quesadillas & Various Drinks.,Mexican,6006013.135,2107762.89,37.76785527,-122.4224844,http://bsm.sfdpw.org/PermitsTracker/reports/report.aspx?title=schedule&report=rptSchedule&params=permit=16MFF-0080&ExportPDF=1&Filename=16MFF-0080_schedule.pdf,Th/Fr/Sa:2PM-10PM,,3/24/16 0:00,3/24/16,0,3/15/17 0:00,"(37.7678552693543, -122.422484404162)"
772923,Steve's Mobile Deli,Truck,13036000,UTAH ST: ALAMEDA ST to 15TH ST (100 - 199),101 UTAH ST,3918009,3918,9,16MFF-0082,APPROVED,Cold Truck: Pre-packaged sandwiches: Burgers: Hot Dogs: Muffin Sandwiches: Enchiladas: Bagels: Burritos: Salads: Snacks: Beverages,ColdTruck,6010687.388,2107677.16,37.76788245,-122.4063106,http://bsm.sfdpw.org/PermitsTracker/reports/report.aspx?title=schedule&report=rptSchedule&params=permit=16MFF-0082&ExportPDF=1&Filename=16MFF-0082_schedule.pdf,Mo-Fr:9AM-10AM,,3/25/16 0:00,3/25/16,1,3/15/17 0:00,"(37.7678824549751, -122.406310586005)"
776751,Hiyaaa,Truck,8122000,LARKIN ST: FULTON ST to MCALLISTER ST (200 - 299),200 LARKIN ST,353001,353,1,16MFF-0088,APPROVED,Korean Fried Chicken,Fusion,6007971.743,2112224.278,37.78021548,-122.4160258,http://bsm.sfdpw.org/PermitsTracker/reports/report.aspx?title=schedule&report=rptSchedule&params=permit=16MFF-0088&ExportPDF=1&Filename=16MFF-0088_schedule.pdf,We/Th:9AM-3PM,,3/30/16 0:00,3/30/16,0,3/15/17 0:00,"(37.7802154802881, -122.416025770151)"
777023,M M Catering,Truck,6603000,HAIGHT ST: GOUGH ST to OCTAVIA ST (20 - 99),20 HAIGHT ST,853023,853,23,16MFF-0089,APPROVED,Cold Truck: sandwiches: corndogs: tacos: yogurt: snacks: candy: hot and cold drinks,ColdTruck,6005961.175,2109761.804,37.77334088,-122.4228062,http://bsm.sfdpw.org/PermitsTracker/reports/report.aspx?title=schedule&report=rptSchedule&params=permit=16MFF-0089&ExportPDF=1&Filename=16MFF-0089_schedule.pdf,Mo-Fr:6PM-8PM,,3/31/16 0:00,3/31/16,1,3/15/17 0:00,"(37.7733408773453, -122.422806203983)"
775689,Think is Good Inc.,Truck,147000,02ND ST: BRANNAN ST to TOWNSEND ST (600 - 699),625 02ND ST,3789007,3789,7,16MFF-0087,APPROVED,Sushi Burrito: Chicken Burrito: Tempura Burrito,Fusion,6015195.702,2112613.963,37.78168898,-122.3910618,http://bsm.sfdpw.org/PermitsTracker/reports/report.aspx?title=schedule&report=rptSchedule&params=permit=16MFF-0087&ExportPDF=1&Filename=16MFF-0087_schedule.pdf,Mo-Fr:12PM-5PM,,3/31/16 0:00,3/29/16,0,3/15/17 0:00,"(37.7816889753451, -122.391061817287)"
767268,Munch India,Truck,3528000,CALIFORNIA ST: SANSOME ST to LEIDESDORFF ST (400 - 448),400 CALIFORNIA ST,239003,239,3,16MFF-0077,APPROVED,Daily rotating menus consisting of various local & organic vegetable: poultry: meat: seafood : rice & bread dishes.,Authentic,6012277.508,2116903.356,37.79330428,-122.401459,http://bsm.sfdpw.org/PermitsTracker/reports/report.aspx?title=schedule&report=rptSchedule&params=permit=16MFF-0077&ExportPDF=1&Filename=16MFF-0077_schedule.pdf,Mo/Fr:9AM-3PM,,3/31/16 0:00,3/18/16,0,3/15/17 0:00,"(37.793304275561, -122.401458998413)"
775369,Lobsta Truck,Truck,9090000,MISSION ST: SHAW ALY to ANTHONY ST (543 - 586),560 MISSION ST,3708095,3708,95,16MFF-0083,APPROVED,Lobster rolls: crab rolls: clam chowder: lobster bisque: chips: lemonade: drinks,Authentic,6012851.27,2115274.827,37.78886472,-122.3993594,http://bsm.sfdpw.org/PermitsTracker/reports/report.aspx?title=schedule&report=rptSchedule&params=permit=16MFF-0083&ExportPDF=1&Filename=16MFF-0083_schedule.pdf,Tu/Th:10AM-3PM,,3/31/16 0:00,3/29/16,0,3/15/17 0:00,"(37.788864715343, -122.399359351363)"
777717,"Casey's Pizza, LLC",Truck,11544000,SANSOME ST: PINE ST to CALIFORNIA ST (200 - 299),231 SANSOME ST,260002,260,2,16MFF-0090,APPROVED,Artisan Pizzas (Margherita: Yukon Potato: Zoe's Pepperoni: Funghi: Brocolli Rabe: Bacon Kale:  Arugula) and Drinks.,Authentic,6012313.995,2116649.543,37.7926094,-122.4013149,http://bsm.sfdpw.org/PermitsTracker/reports/report.aspx?title=schedule&report=rptSchedule&params=permit=16MFF-0090&ExportPDF=1&Filename=16MFF-0090_schedule.pdf,Mo/We:10AM-2PM,,4/4/16 0:00,4/4/16,0,3/15/17 0:00,"(37.792609401119, -122.401314905451)"
775474,Sanguchon,Truck,3529000,CALIFORNIA ST: LEIDESDORFF ST to MONTGOMERY ST (449 - 499),475 CALIFORNIA ST,260010,260,10,16MFF-0084,APPROVED,Peruvian food,Authentic,6012002.812,2116560.078,37.79234639,-122.4023853,http://bsm.sfdpw.org/PermitsTracker/reports/report.aspx?title=schedule&report=rptSchedule&params=permit=16MFF-0084&ExportPDF=1&Filename=16MFF-0084_schedule.pdf,Mo/We/Fr:11AM-3PM,,4/4/16 0:00,3/29/16,0,3/15/17 0:00,"(37.792346385148, -122.402385322794)"
775615,Sanguchon,Truck,12045000,SPEAR ST: MISSION ST to HOWARD ST (100 - 199),100 SPEAR ST,3717001,3717,1,16MFF-0085,APPROVED,Peruvian Food,Authentic,6014423.85,2116439.642,37.79215055,-122.394,http://bsm.sfdpw.org/PermitsTracker/reports/report.aspx?title=schedule&report=rptSchedule&params=permit=16MFF-0085&ExportPDF=1&Filename=16MFF-0085_schedule.pdf,Mo-Fr:11AM-3PM,,4/4/16 0:00,3/29/16,0,3/15/17 0:00,"(37.7921505484817, -122.393999974059)"
783820,Natan's Catering,Truck,1507000,26TH ST: RHODE ISLAND ST to KANSAS ST (2200 - 2299),Assessors Block 4281a/Lot012A,4281a012A,4281a,012A,16MFF-0093,APPROVED,Burgers: melts: hot dogs: burritos:sandwiches: fries: onion rings: drinks,Authentic,6011939.286,2101416.045,37.75076077,-122.4015403,http://bsm.sfdpw.org/PermitsTracker/reports/report.aspx?title=schedule&report=rptSchedule&params=permit=16MFF-0093&ExportPDF=1&Filename=16MFF-0093_schedule.pdf,Sa/Sa/Sa/Sa/Sa:12AM-1AM;Mo/Mo/Mo/Mo/Mo:6AM-7AM/8AM-9AM;Su/Su/Su/Su/Su:9AM-10AM;Mo/Mo/Mo/Mo/Mo:9AM-1,,4/15/16 0:00,4/14/16,1,3/15/17 0:00,"(37.7507607694601, -122.401540291357)"
765868,El Gallo Jiro,Truck,1260000,23RD ST: TREAT AVE to FOLSOM ST (3052 - 3099),3055 23RD ST,3640039,3640,39,16MFF-0068,APPROVED,Burritos: Giros: Tortas: Quesadillas: Tacos & Various Beverages,Mexican,6008556.964,2102638.387,37.75392774,-122.4133231,http://bsm.sfdpw.org/PermitsTracker/reports/report.aspx?title=schedule&report=rptSchedule&params=permit=16MFF-0068&ExportPDF=1&Filename=16MFF-0068_schedule.pdf,Mo/Tu/We/Th/Fr:10AM-6PM,,4/19/16 0:00,3/15/16,1,3/15/17 0:00,"(37.7539277357265, -122.413323129618)"
792635,Tres Agaves Mexican Kitchen & Tequila Lounge LLC. dba Tres Truck,Truck,711000,16TH ST: KANSAS ST to VERMONT ST (1700 - 1799),1700 16TH ST,3935005,3935,5,16MFF-0095,APPROVED,Multiple Trucks - Everything,ColdTruck,6011356.434,2107057.15,37.76621745,-122.4039528,http://bsm.sfdpw.org/PermitsTracker/reports/report.aspx?title=schedule&report=rptSchedule&params=permit=16MFF-0095&ExportPDF=1&Filename=16MFF-0095_schedule.pdf,We/Th/Fr:8AM-3PM,,4/25/16 0:00,4/25/16,0,3/15/17 0:00,"(37.76621745068, -122.403952784121)"
793874,Subs on Hubs,Truck,412000,08TH ST: FOLSOM ST to RINGOLD ST (300 - 341),333 08TH ST,3755056,3755,56,16MFF-0096,APPROVED,Italian subs: Cuban sandwich: Gyro,Authentic,6009851.369,2110277.469,37.7749755,-122.4093858,http://bsm.sfdpw.org/PermitsTracker/reports/report.aspx?title=schedule&report=rptSchedule&params=permit=16MFF-0096&ExportPDF=1&Filename=16MFF-0096_schedule.pdf,Th/Fr:12AM-2AM;We/Th:11PM-12AM,,4/28/16 0:00,4/28/16,0,3/15/17 0:00,"(37.7749754998217, -122.409385823194)"
797144,Two G's Catering,Truck,12532003,TERRY A FRANCOIS BLVD: MISSION BAY BLVD to MISSION BAY BLVD (0 - 0),Assessors Block 8720/Lot008,8720008,8720,8,16MFF-0107,APPROVED,Cold Truck: Hot & Cold Sandwiches: Bagels: Burritos: Soups: Hot Dogs: Tacos: Pork Buns: BBQ Meat: Fruit: Various Beverages: Pasties: Pre-Packaged Snacks: Candy: Salads: Muffins: Scones: Brownies: Croissants: Energy Bars: Noodle Bowls,ColdTruck,6016311.862,2108756.11,37.77115804,-122.3869313,http://bsm.sfdpw.org/PermitsTracker/reports/report.aspx?title=schedule&report=rptSchedule&params=permit=16MFF-0107&ExportPDF=1&Filename=16MFF-0107_schedule.pdf,Mo-Su:10AM-11AM,,5/5/16 0:00,5/5/16,1,3/15/17 0:00,"(37.7711580369615, -122.386931257562)"
797109,"Slider Shack, LLC.",Truck,7032000,HOWARD ST: FREMONT ST to 01ST ST (400 - 499),400 HOWARD ST,3720008,3720,8,16MFF-0106,APPROVED,Sliders: Tater Tots: Beverages,Authentic,6013858.06,2115347.095,37.78911921,-122.395881,http://bsm.sfdpw.org/PermitsTracker/reports/report.aspx?title=schedule&report=rptSchedule&params=permit=16MFF-0106&ExportPDF=1&Filename=16MFF-0106_schedule.pdf,Mo/Th/Fr:10AM-3PM,,5/5/16 0:00,5/5/16,0,3/15/17 0:00,"(37.7891192076677, -122.395881039335)"
800978,May Catering,Truck,10659000,POTRERO AVE: ALAMEDA ST to 15TH ST (100 - 199),100 POTRERO AVE,3920001,3920,1,16MFF-0111,APPROVED,Cold Truck: Sandwiches: fruit: snacks: candy: hot and cold drinks,ColdTruck,6010116.912,2107759.235,37.76807589,-122.4082896,http://bsm.sfdpw.org/PermitsTracker/reports/report.aspx?title=schedule&report=rptSchedule&params=permit=16MFF-0111&ExportPDF=1&Filename=16MFF-0111_schedule.pdf,Mo-Fr:2PM-3PM,,5/6/16 0:00,5/6/16,1,3/15/17 0:00,"(37.7680758859527, -122.408289595287)"
801865,"Santana ESG, Inc.",Truck,11542000,SANSOME ST: SUTTER ST to BUSH ST (1 - 99),1 SANSOME ST,289003,289,3,16MFF-0115,APPROVED,Tacos: Burritos: Tortas: Quesadillas: Mexican Drinks: Aguas Frescas,Mexican,6012406.465,2115874.016,37.79048515,-122.4009404,http://bsm.sfdpw.org/PermitsTracker/reports/report.aspx?title=schedule&report=rptSchedule&params=permit=16MFF-0115&ExportPDF=1&Filename=16MFF-0115_schedule.pdf,Mo-Fr:11AM-3PM,,5/10/16 0:00,5/10/16,1,3/15/17 0:00,"(37.790485146128, -122.40094044069)"
801849,Tacos El Ojo De Agua,Truck,177000,03RD ST: SOUTH PARK to VARNEY PL (548 - 586),551 03RD ST,3775025,3775,25,16MFF-0114,APPROVED,Tacos: Burritos: Tortas: Quesadillas: Salads: Soup: Fruits: Juices: Soda: Water,Mexican,6014157.282,2112255.562,37.78064721,-122.3946292,http://bsm.sfdpw.org/PermitsTracker/reports/report.aspx?title=schedule&report=rptSchedule&params=permit=16MFF-0114&ExportPDF=1&Filename=16MFF-0114_schedule.pdf,Mo-Fr:9AM-4PM,,5/10/16 0:00,5/10/16,0,3/15/17 0:00,"(37.7806472100484, -122.394629181662)"
801895,La Jefa,Truck,2801102,BAY SHORE BLVD: WATERLOO ST to MARENGO ST (501 - 559) -- EAST --,531 BAY SHORE BLVD,5607038,5607,38,16MFF-0118,APPROVED,Tacos: burritos: quesadillas: tortas: nachos (refried beans: cheese sauce: salsa fresca): carnes (beef: chicken: marinated pork: fried pork): canned beans: rice: sodas: horchata drinks.,Mexican,6010348.157,2097065.717,37.7387268,-122.406736,http://bsm.sfdpw.org/PermitsTracker/reports/report.aspx?title=schedule&report=rptSchedule&params=permit=16MFF-0118&ExportPDF=1&Filename=16MFF-0118_schedule.pdf,Mo-Su:7AM-8PM,,5/10/16 0:00,5/10/16,0,3/15/17 0:00,"(37.7387268039871, -122.406736029905)"
802221,El Tonayense #60,Truck,6746000,HARRISON ST: 17TH ST to MARIPOSA ST (2050 - 2149),401 TREAT AVE,3573023,3573,23,16MFF-0119,APPROVED,Tacos: Burritos: Tortas: Quesadillas: Drinks,Mexican,6008587.223,2105981.305,37.76310833,-122.4134549,http://bsm.sfdpw.org/PermitsTracker/reports/report.aspx?title=schedule&report=rptSchedule&params=permit=16MFF-0119&ExportPDF=1&Filename=16MFF-0119_schedule.pdf,Mo-Su:10AM-4PM,,5/11/16 0:00,5/11/16,1,3/15/17 0:00,"(37.7631083253767, -122.413454890022)"
676176,The Huge Hotdog Concession,Truck,10567000,POLK ST: BUSH ST to AUSTIN ST \ FRANK NORRIS ST (1300 - 1329),1300 POLK ST,0668004A,668,004A,15MFF-0136,APPROVED,Hotdogs: chips: soda: nuts: crackers,ColdTruck,6006861.832,2115401.583,37.78887712,-122.420091,http://bsm.sfdpw.org/PermitsTracker/reports/report.aspx?title=schedule&report=rptSchedule&params=permit=15MFF-0136&ExportPDF=1&Filename=15MFF-0136_schedule.pdf,Su/Fr/Sa:8PM-2AM,,5/13/16 0:00,7/21/15,0,3/15/17 0:00,"(37.7888771172666, -122.420091020038)"
654165,Maiwand Halal Kabob Truck,Truck,4605000,DAVIS ST: BEALE ST \ MARKET ST \ PINE ST to CALIFORNIA ST (1 - 99),48 DAVIS ST,264004,264,4,15MFF-0009,APPROVED,Mantu: Balani: Guabili pillow: lamb shank,Authentic,6013552.57,2116844.5,37.79321373,-122.397043,http://bsm.sfdpw.org/PermitsTracker/reports/report.aspx?title=schedule&report=rptSchedule&params=permit=15MFF-0009&ExportPDF=1&Filename=15MFF-0009_schedule.pdf,Mo/We/Fr:10AM-2PM,,5/20/16 0:00,2/24/15,0,3/15/17 0:00,"(37.7932137316634, -122.397043036718)"
735646,El Calamar Perubian Food Truck,Truck,9091000,MISSION ST: ANTHONY ST to 02ND ST (573 - 599),85 02ND ST,3708019,3708,19,15MFF-0151,APPROVED,Lomo Saltado: Jalea: Ceviche: Calamar: Tilapia plate: chicken special. Soda: Water.,Authentic,6012696.635,2115129.488,37.78845703,-122.3998842,http://bsm.sfdpw.org/PermitsTracker/reports/report.aspx?title=schedule&report=rptSchedule&params=permit=15MFF-0151&ExportPDF=1&Filename=15MFF-0151_schedule.pdf,Tu/We/Th:10AM-3PM,,7/7/16 0:00,9/14/15,0,3/15/17 0:00,"(37.7884570288289, -122.399884160566)"
915988,"Bay Area Mobile Catering, Inc. dba. Taqueria Angelica's",Truck,1428000,25TH ST: ALABAMA ST to HARRISON ST (3042 - 3099),3065 25TH ST,4271038,4271,38,16MFF-0142,APPROVED,Tacos: burritos: soda & juice,Mexican,6009084.78,2101536.437,37.75093165,-122.41142,http://bsm.sfdpw.org/PermitsTracker/reports/report.aspx?title=schedule&report=rptSchedule&params=permit=16MFF-0142&ExportPDF=1&Filename=16MFF-0142_schedule.pdf,Su:10AM-6PM,,11/30/16 0:00,11/30/16,1,3/15/17 0:00,"(37.7509316476402, -122.411419966206)"
805152,El Tonayanse #4 / #36,Truck,6740000,HARRISON ST: 13TH ST to 14TH ST (1700 - 1799),1717 HARRISON ST,3901001,3901,1,16MFF-0124,APPROVED,Tacos: Burritos: Tortas: Quesadillas,Mexican,,,0,0,http://bsm.sfdpw.org/PermitsTracker/reports/report.aspx?title=schedule&report=rptSchedule&params=permit=16MFF-0124&ExportPDF=1&Filename=16MFF-0124_schedule.pdf,Mo-Su:10AM-7PM,,5/18/16 0:00,5/18/16,1,3/15/17 0:00,"(0, 0)"
687419,Ruru Soul,Truck,3705000,CAROLINA ST: CHANNEL ST to 08TH ST \ 15TH ST (1 - 99),80 CAROLINA ST,3913002,3913,2,15MFF-0143,APPROVED,Cold-pressed juice: smoothies: wheatgrass and ginger shots: fruit salad: pastries,ColdTruck,6012156.637,2107629.412,37.76783343,-122.4012252,http://bsm.sfdpw.org/PermitsTracker/reports/report.aspx?title=schedule&report=rptSchedule&params=permit=15MFF-0143&ExportPDF=1&Filename=15MFF-0143_schedule.pdf,Tu/We/Th:7AM-2PM,,7/15/16 0:00,8/26/15,0,3/15/17 0:00,"(37.7678334279142, -122.401225236458)"
764864,Senor Sisig,Truck,10456000,PINE ST: SANSOME ST to CENTURY PL (300 - 340),300 PINE ST,260005,260,5,16MFF-0044,APPROVED,Filipino fusion food: tacos: burritos: nachos: rice plates. Various beverages.,Fusion,,,0,0,http://bsm.sfdpw.org/PermitsTracker/reports/report.aspx?title=schedule&report=rptSchedule&params=permit=16MFF-0044&ExportPDF=1&Filename=16MFF-0044_schedule.pdf,Mo-Fr:11AM-2PM,,7/25/16 0:00,3/11/16,0,3/15/17 0:00,"(0, 0)"
849883,Roadside Rotisserie Corporation / Country Grill,Truck,9301000,MONTGOMERY ST: CALIFORNIA ST to SACRAMENTO ST (400 - 499),451 MONTGOMERY ST,240001,240,1,16MFF-0121,APPROVED,Rotisserie Chicken; Ribs; Pork Loin; Roasted Potatoes; Chicken Wrap; Kale Salad; Drinks,Authentic,6011767.937,2117013.017,37.79357693,-122.4032299,http://bsm.sfdpw.org/PermitsTracker/reports/report.aspx?title=schedule&report=rptSchedule&params=permit=16MFF-0121&ExportPDF=1&Filename=16MFF-0121_schedule.pdf,Mo/We/Fr:9AM-3PM,,11/1/16 0:00,5/18/16,0,3/15/17 0:00,"(37.7935769332618, -122.403229876701)"
775804,Buenafe,Truck,701000,16TH ST: 07TH ST \ MISSISSIPPI ST to MISSOURI ST (900 - 999),901 16TH ST,3949001,3949,1,16MFF-0008,APPROVED,Tacos burritos quesadillas tortas pupusas flautas tamales,Mexican,6013806.356,2106973.63,37.76612469,-122.3954731,http://bsm.sfdpw.org/PermitsTracker/reports/report.aspx?title=schedule&report=rptSchedule&params=permit=16MFF-0008&ExportPDF=1&Filename=16MFF-0008_schedule.pdf,Mo-We:8AM-5PM,,7/14/16 0:00,1/11/16,0,3/15/17 0:00,"(37.766124694427, -122.39547306227)"
762285,Philz Coffee Truck,Truck,12323000,SUTTER ST: POWELL ST to MASON ST (500 - 599),556 SUTTER ST,284009,284,9,16MFF-0030,APPROVED,Hot coffee: iced coffee: hot chocolate: tea: pastries,ColdTruck,6009899.062,2115524.564,37.78938545,-122.4095913,http://bsm.sfdpw.org/PermitsTracker/reports/report.aspx?title=schedule&report=rptSchedule&params=permit=16MFF-0030&ExportPDF=1&Filename=16MFF-0030_schedule.pdf,Th/Fr/Sa:6AM-4PM,,1/17/17 0:00,3/9/16,0,3/15/17 0:00,"(37.7893854510391, -122.409591260467)"
911893,Roadside Rotisserie Corporation / Country Grill,Truck,3075000,BRANNAN ST: STANFORD ST to JACK LONDON ALY (324 - 353),333 BRANNAN ST,3788042,3788,42,16MFF-0007,APPROVED,Rotisserie Chicken; Ribs; Pork Loin; Roasted Potatoes; Chicken Wrap; Kale Salad; Drinks,Authentic,6014798.469,2112341.208,37.780918,-122.392417,http://bsm.sfdpw.org/PermitsTracker/reports/report.aspx?title=schedule&report=rptSchedule&params=permit=16MFF-0007&ExportPDF=1&Filename=16MFF-0007_schedule.pdf,Mo/Tu/Th:9AM-6PM,,11/14/16 0:00,1/11/16,0,3/15/17 0:00,"(37.780918000993, -122.392416983133)"
828062,Roadside Rotisserie Corporation / Country Grill,Truck,10624001,POST ST: MONTGOMERY ST to LICK PL (1 - 40),1 POST ST,311015,311,15,15MFF-0156,APPROVED,Rotisserie chicken: pork loin: ribs: chicken salad wrap: potatoes: roasted seasonal vegetables kale salad: beverages.,Authentic,6011921.732,2115262.393,37.78877872,-122.4025746,http://bsm.sfdpw.org/PermitsTracker/reports/report.aspx?title=schedule&report=rptSchedule&params=permit=15MFF-0156&ExportPDF=1&Filename=15MFF-0156_schedule.pdf,Tu/Th/Fr:6PM-8PM,,11/17/16 0:00,11/30/15,0,3/15/17 0:00,"(37.788778723378, -122.402574568411)"
761674,"Expresso Subito, LLC.",Truck,3525000,CALIFORNIA ST: DAVIS ST to FRONT ST (100 - 199),150 CALIFORNIA ST,236019,236,19,16MFF-0021,APPROVED,Espresso Drinks,ColdTruck,6013145.603,2117020.157,37.79367338,-122.3984635,http://bsm.sfdpw.org/PermitsTracker/reports/report.aspx?title=schedule&report=rptSchedule&params=permit=16MFF-0021&ExportPDF=1&Filename=16MFF-0021_schedule.pdf,Tu/Th:6AM-8PM,,1/26/17 0:00,3/8/16,0,3/15/17 0:00,"(37.7936733815047, -122.398463509486)"